ALOS (DAICHI)           
1 28931U 06002A   26076.12747106  .00001230  00000+0  21417-3 0  9993
2 28931  98.1230  32.0461 0000723  73.2458 286.8827 14.69834120 74577
H-2A R/B                
1 28932U 06002B   26076.13116954  .00008520  00000+0  42533-3 0  9997
2 28932  98.2418 223.7965 0051996 215.3822 144.3955 15.16589419 95560
RESURS-DK 1             
1 29228U 06021A   26075.80896722  .00002855  00000+0  16832-3 0  9996
2 29228  69.9330 218.6056 0001128 150.4180 209.7050 15.12798052 88609
CZ-4B R/B               
1 29507U 06046C   26076.12909661  .00003840  00000+0  19555-3 0  9996
2 29507  97.5582 121.0180 0031841 240.2506 119.5558 15.16982192 61173
CZ-2C R/B               
1 31114U 07010B   26076.19361375  .00000109  00000+0  69260-4 0  9990
2 31114  98.3985 189.0964 0057830 272.3761  87.0796 14.20248903980784
COSMO-SKYMED 1          
1 31598U 07023A   26076.28660715  .00003217  00000+0  28770-3 0  9993
2 31598  97.8881 267.3805 0001568  90.5018 269.6383 14.96600663 16042
COSMOS 2428             
1 31792U 07029A   26076.25137691 -.00000020  00000+0  14997-4 0  9991
2 31792  70.9439 187.4726 0009397 269.4010  90.6035 14.12947296965166
SL-16 R/B               
1 31793U 07029B   26076.00920915  .00000313  00000+0  18697-3 0  9998
2 31793  70.9757 156.9998 0002288 276.3877 256.5317 14.14836866966408
KORONAS-FOTON           
1 33504U 09003A   26076.02568901  .00011407  00000+0  25307-3 0  9991
2 33504  82.4270 268.2495 0011702 125.6134 234.6205 15.43502654946870
CZ-2C R/B               
1 37731U 11030B   26075.90860517  .00001481  00000+0  19264-3 0  9990
2 37731  97.8556  33.0277 0051801 328.4169  98.2177 14.81250046791162
H-2A R/B                
1 38341U 12025E   26076.15683761  .00002352  00000+0  21633-3 0  9996
2 38341  98.4736  43.8012 0043291 289.1066  70.5468 14.95223041749334
SHIJIAN-16 (SJ-16)      
1 39358U 13057A   26076.27137546  .00001933  00000+0  19121-3 0  9992
2 39358  74.9735 170.7369 0015368  93.0636 267.2311 14.92381789672636
SL-4 R/B                
1 39679U 14021B   26075.96503822  .00014258  00000+0  31321-3 0  9999
2 39679  51.6063 301.7801 0096870 129.5376 231.4219 15.39428092657395
ALOS-2                  
1 39766U 14029A   26076.29344637  .00001727  00000+0  23776-3 0  9990
2 39766  97.9193 174.7802 0001433  93.8543 266.2833 14.79535339637996
YAOGAN-29               
1 41038U 15069A   26076.28386302  .00000350  00000+0  49701-4 0  9992
2 41038  98.0136 104.7336 0001426  22.1368 337.9906 14.83003556557003
ASTRO-H (HITOMI)        
1 41337U 16012A   26075.97138018  .00002718  00000+0  15721-3 0  9991
2 41337  30.9999 309.5569 0009659  43.9666 316.1739 15.10055043553332
